ONEWEB-0203             
1 48235U 21031AB  26060.16465480 -.00000233  00000+0 -66291-3 0  9993
2 48235  87.9006 311.2404 0001595  84.9358 275.1954 13.14499965234087
ONEWEB-0197             
1 48236U 21031AC  26060.13916608  .00000235  00000+0  59810-3 0  9993
2 48236  87.9000 311.2453 0001635  68.4907 291.6397 13.14501758233995
ONEWEB-0194             
1 48237U 21031AD  26060.11868769 -.00000030  00000+0 -11652-3 0  9993
2 48237  87.9002 311.2666 0001467  84.7287 275.4010 13.14502204234168
ONEWEB-0193             
1 48238U 21031AE  26060.13454581  .00000218  00000+0  55228-3 0  9992
2 48238  87.8999 311.2555 0001285  89.1866 270.9411 13.14501834234118
ONEWEB-0191             
1 48239U 21031AF  26060.14564548  .00000275  00000+0  70851-3 0  9991
2 48239  87.9003 311.2487 0001602  78.1139 282.0170 13.14501465233973
ONEWEB-0195             
1 48240U 21031AG  26060.12265230  .00000042  00000+0  78246-4 0  9996
2 48240  87.8999 311.2501 0002016  85.9848 274.1512 13.14502392233958
ONEWEB-0201             
1 48241U 21031AH  26060.11089760 -.00000197  00000+0 -56562-3 0  9997
2 48241  87.8994 311.2817 0001922  73.7271 286.4070 13.14502386234188
ONEWEB-0207             
1 48242U 21031AJ  26060.16706817 -.00000010  00000+0 -60306-4 0  9998
2 48242  87.9005 311.2415 0001810  71.2398 288.8928 13.14503241234107
ONEWEB-0208             
1 48243U 21031AK  26060.14881668  .00000232  00000+0  59052-3 0  9994
2 48243  87.9001 311.2580 0001914  85.3333 274.8016 13.14501486234110
ONEWEB-0200             
1 48244U 21031AL  26060.11234071 -.00000123  00000+0 -36600-3 0  9997
2 48244  87.9002 311.2538 0001819  80.1740 279.9595 13.14501352234035
ONEWEB-0217             
1 48245U 21031AM  26060.12820485  .00000118  00000+0  28297-3 0  9994
2 48245  87.9003 311.2503 0001982  85.5508 274.5848 13.14502134233985
ONEWEB-0211             
1 48767U 21045A   26060.08977497  .00000017  00000+0  12237-4 0  9995
2 48767  87.8954 280.6892 0001916  98.9294 261.2054 13.16143296230223
ONEWEB-0223             
1 48768U 21045B   26060.11579758  .00000061  00000+0  12824-3 0  9998
2 48768  87.8959 280.7636 0001719 102.8428 257.2894 13.15547135230193
ONEWEB-0230             
1 48769U 21045C   26060.16333379  .00000022  00000+0  23395-4 0  9994
2 48769  87.8947 280.7778 0001494  83.7809 276.3491 13.15547189230462
ONEWEB-0237             
1 48770U 21045D   26060.15223765  .00000174  00000+0  42783-3 0  9991
2 48770  87.8946 280.7818 0001490  97.3984 262.7315 13.15547049230187
ONEWEB-0235             
1 48771U 21045E   26060.12688803  .00000223  00000+0  55717-3 0  9993
2 48771  87.8956 280.7622 0001617 104.6512 255.4797 13.15546957230171
ONEWEB-0242             
1 48772U 21045F   26060.12054803  .00000161  00000+0  39486-3 0  9997
2 48772  87.8955 280.7589 0001440  92.4342 267.6953 13.15546916230211
