[{"OBJECT_NAME":"ONEWEB-0203","OBJECT_ID":"2021-031AB","EPOCH":"2026-03-01T03:57:06.174720","MEAN_MOTION":13.14499965,"ECCENTRICITY":0.0001595,"INCLINATION":87.9006,"RA_OF_ASC_NODE":311.2404,"ARG_OF_PERICENTER":84.9358,"MEAN_ANOMALY":275.1954,"EPHEMERIS_TYPE":0,"CLASSIFICATION_TYPE":"U","NORAD_CAT_ID":48235,"ELEMENT_SET_NO":999,"REV_AT_EPOCH":23408,"BSTAR":-0.00066291,"MEAN_MOTION_DOT":-2.33e-6,"MEAN_MOTION_DDOT":0},{"OBJECT_NAME":"ONEWEB-0197","OBJECT_ID":"2021-031AC","EPOCH":"2026-03-01T03:20:23.949312","MEAN_MOTION":13.14501758,"ECCENTRICITY":0.0001635,"INCLINATION":87.9,"RA_OF_ASC_NODE":311.2453,"ARG_OF_PERICENTER":68.4907,"MEAN_ANOMALY":291.6397,"EPHEMERIS_TYPE":0,"CLASSIFICATION_TYPE":"U","NORAD_CAT_ID":48236,"ELEMENT_SET_NO":999,"REV_AT_EPOCH":23399,"BSTAR":0.0005981,"MEAN_MOTION_DOT":2.35e-6,"MEAN_MOTION_DDOT":0},{"OBJECT_NAME":"ONEWEB-0194","OBJECT_ID":"2021-031AD","EPOCH":"2026-03-01T02:50:54.616416","MEAN_MOTION":13.14502204,"ECCENTRICITY":0.0001467,"INCLINATION":87.9002,"RA_OF_ASC_NODE":311.2666,"ARG_OF_PERICENTER":84.7287,"MEAN_ANOMALY":275.401,"EPHEMERIS_TYPE":0,"CLASSIFICATION_TYPE":"U","NORAD_CAT_ID":48237,"ELEMENT_SET_NO":999,"REV_AT_EPOCH":23416,"BSTAR":-0.00011652,"MEAN_MOTION_DOT":-3.0e-7,"MEAN_MOTION_DDOT":0},{"OBJECT_NAME":"ONEWEB-0193","OBJECT_ID":"2021-031AE","EPOCH":"2026-03-01T03:13:44.757984","MEAN_MOTION":13.14501834,"ECCENTRICITY":0.0001285,"INCLINATION":87.8999,"RA_OF_ASC_NODE":311.2555,"ARG_OF_PERICENTER":89.1866,"MEAN_ANOMALY":270.9411,"EPHEMERIS_TYPE":0,"CLASSIFICATION_TYPE":"U","NORAD_CAT_ID":48238,"ELEMENT_SET_NO":999,"REV_AT_EPOCH":23411,"BSTAR":0.00055228,"MEAN_MOTION_DOT":2.18e-6,"MEAN_MOTION_DDOT":0},{"OBJECT_NAME":"ONEWEB-0191","OBJECT_ID":"2021-031AF","EPOCH":"2026-03-01T03:29:43.769472","MEAN_MOTION":13.14501465,"ECCENTRICITY":0.0001602,"INCLINATION":87.9003,"RA_OF_ASC_NODE":311.2487,"ARG_OF_PERICENTER":78.1139,"MEAN_ANOMALY":282.017,"EPHEMERIS_TYPE":0,"CLASSIFICATION_TYPE":"U","NORAD_CAT_ID":48239,"ELEMENT_SET_NO":999,"REV_AT_EPOCH":23397,"BSTAR":0.00070851,"MEAN_MOTION_DOT":2.75e-6,"MEAN_MOTION_DDOT":0},{"OBJECT_NAME":"ONEWEB-0195","OBJECT_ID":"2021-031AG","EPOCH":"2026-03-01T02:56:37.158720","MEAN_MOTION":13.14502392,"ECCENTRICITY":0.0002016,"INCLINATION":87.8999,"RA_OF_ASC_NODE":311.2501,"ARG_OF_PERICENTER":85.9848,"MEAN_ANOMALY":274.1512,"EPHEMERIS_TYPE":0,"CLASSIFICATION_TYPE":"U","NORAD_CAT_ID":48240,"ELEMENT_SET_NO":999,"REV_AT_EPOCH":23395,"BSTAR":7.8246e-5,"MEAN_MOTION_DOT":4.2e-7,"MEAN_MOTION_DDOT":0},{"OBJECT_NAME":"ONEWEB-0201","OBJECT_ID":"2021-031AH","EPOCH":"2026-03-01T02:39:41.552640","MEAN_MOTION":13.14502386,"ECCENTRICITY":0.0001922,"INCLINATION":87.8994,"RA_OF_ASC_NODE":311.2817,"ARG_OF_PERICENTER":73.7271,"MEAN_ANOMALY":286.407,"EPHEMERIS_TYPE":0,"CLASSIFICATION_TYPE":"U","NORAD_CAT_ID":48241,"ELEMENT_SET_NO":999,"REV_AT_EPOCH":23418,"BSTAR":-0.00056562,"MEAN_MOTION_DOT":-1.97e-6,"MEAN_MOTION_DDOT":0},{"OBJECT_NAME":"ONEWEB-0207","OBJECT_ID":"2021-031AJ","EPOCH":"2026-03-01T04:00:34.689888","MEAN_MOTION":13.14503241,"ECCENTRICITY":0.000181,"INCLINATION":87.9005,"RA_OF_ASC_NODE":311.2415,"ARG_OF_PERICENTER":71.2398,"MEAN_ANOMALY":288.8928,"EPHEMERIS_TYPE":0,"CLASSIFICATION_TYPE":"U","NORAD_CAT_ID":48242,"ELEMENT_SET_NO":999,"REV_AT_EPOCH":23410,"BSTAR":-6.0306e-5,"MEAN_MOTION_DOT":-1.0e-7,"MEAN_MOTION_DDOT":0},{"OBJECT_NAME":"ONEWEB-0208","OBJECT_ID":"2021-031AK","EPOCH":"2026-03-01T03:34:17.761152","MEAN_MOTION":13.14501486,"ECCENTRICITY":0.0001914,"INCLINATION":87.9001,"RA_OF_ASC_NODE":311.258,"ARG_OF_PERICENTER":85.3333,"MEAN_ANOMALY":274.8016,"EPHEMERIS_TYPE":0,"CLASSIFICATION_TYPE":"U","NORAD_CAT_ID":48243,"ELEMENT_SET_NO":999,"REV_AT_EPOCH":23411,"BSTAR":0.00059052,"MEAN_MOTION_DOT":2.32e-6,"MEAN_MOTION_DDOT":0},{"OBJECT_NAME":"ONEWEB-0200","OBJECT_ID":"2021-031AL","EPOCH":"2026-03-01T02:41:46.237344","MEAN_MOTION":13.14501352,"ECCENTRICITY":0.0001819,"INCLINATION":87.9002,"RA_OF_ASC_NODE":311.2538,"ARG_OF_PERICENTER":80.174,"MEAN_ANOMALY":279.9595,"EPHEMERIS_TYPE":0,"CLASSIFICATION_TYPE":"U","NORAD_CAT_ID":48244,"ELEMENT_SET_NO":999,"REV_AT_EPOCH":23403,"BSTAR":-0.000366,"MEAN_MOTION_DOT":-1.23e-6,"MEAN_MOTION_DDOT":0},{"OBJECT_NAME":"ONEWEB-0217","OBJECT_ID":"2021-031AM","EPOCH":"2026-03-01T03:04:36.899040","MEAN_MOTION":13.14502134,"ECCENTRICITY":0.0001982,"INCLINATION":87.9003,"RA_OF_ASC_NODE":311.2503,"ARG_OF_PERICENTER":85.5508,"MEAN_ANOMALY":274.5848,"EPHEMERIS_TYPE":0,"CLASSIFICATION_TYPE":"U","NORAD_CAT_ID":48245,"ELEMENT_SET_NO":999,"REV_AT_EPOCH":23398,"BSTAR":0.00028297,"MEAN_MOTION_DOT":1.18e-6,"MEAN_MOTION_DDOT":0},{"OBJECT_NAME":"ONEWEB-0211","OBJECT_ID":"2021-045A","EPOCH":"2026-03-01T02:09:16.557408","MEAN_MOTION":13.16143296,"ECCENTRICITY":0.0001916,"INCLINATION":87.8954,"RA_OF_ASC_NODE":280.6892,"ARG_OF_PERICENTER":98.9294,"MEAN_ANOMALY":261.2054,"EPHEMERIS_TYPE":0,"CLASSIFICATION_TYPE":"U","NORAD_CAT_ID":48767,"ELEMENT_SET_NO":999,"REV_AT_EPOCH":23022,"BSTAR":1.2237e-5,"MEAN_MOTION_DOT":1.7e-7,"MEAN_MOTION_DDOT":0},{"OBJECT_NAME":"ONEWEB-0223","OBJECT_ID":"2021-045B","EPOCH":"2026-03-01T02:46:44.910912","MEAN_MOTION":13.15547135,"ECCENTRICITY":0.0001719,"INCLINATION":87.8959,"RA_OF_ASC_NODE":280.7636,"ARG_OF_PERICENTER":102.8428,"MEAN_ANOMALY":257.2894,"EPHEMERIS_TYPE":0,"CLASSIFICATION_TYPE":"U","NORAD_CAT_ID":48768,"ELEMENT_SET_NO":999,"REV_AT_EPOCH":23019,"BSTAR":0.00012824,"MEAN_MOTION_DOT":6.1e-7,"MEAN_MOTION_DDOT":0},{"OBJECT_NAME":"ONEWEB-0230","OBJECT_ID":"2021-045C","EPOCH":"2026-03-01T03:55:12.039456","MEAN_MOTION":13.15547189,"ECCENTRICITY":0.0001494,"INCLINATION":87.8947,"RA_OF_ASC_NODE":280.7778,"ARG_OF_PERICENTER":83.7809,"MEAN_ANOMALY":276.3491,"EPHEMERIS_TYPE":0,"CLASSIFICATION_TYPE":"U","NORAD_CAT_ID":48769,"ELEMENT_SET_NO":999,"REV_AT_EPOCH":23046,"BSTAR":2.3395e-5,"MEAN_MOTION_DOT":2.2e-7,"MEAN_MOTION_DDOT":0},{"OBJECT_NAME":"ONEWEB-0237","OBJECT_ID":"2021-045D","EPOCH":"2026-03-01T03:39:13.332960","MEAN_MOTION":13.15547049,"ECCENTRICITY":0.000149,"INCLINATION":87.8946,"RA_OF_ASC_NODE":280.7818,"ARG_OF_PERICENTER":97.3984,"MEAN_ANOMALY":262.7315,"EPHEMERIS_TYPE":0,"CLASSIFICATION_TYPE":"U","NORAD_CAT_ID":48770,"ELEMENT_SET_NO":999,"REV_AT_EPOCH":23018,"BSTAR":0.00042783,"MEAN_MOTION_DOT":1.74e-6,"MEAN_MOTION_DDOT":0},{"OBJECT_NAME":"ONEWEB-0235","OBJECT_ID":"2021-045E","EPOCH":"2026-03-01T03:02:43.125792","MEAN_MOTION":13.15546957,"ECCENTRICITY":0.0001617,"INCLINATION":87.8956,"RA_OF_ASC_NODE":280.7622,"ARG_OF_PERICENTER":104.6512,"MEAN_ANOMALY":255.4797,"EPHEMERIS_TYPE":0,"CLASSIFICATION_TYPE":"U","NORAD_CAT_ID":48771,"ELEMENT_SET_NO":999,"REV_AT_EPOCH":23017,"BSTAR":0.00055717,"MEAN_MOTION_DOT":2.23e-6,"MEAN_MOTION_DDOT":0},{"OBJECT_NAME":"ONEWEB-0242","OBJECT_ID":"2021-045F","EPOCH":"2026-03-01T02:53:35.349792","MEAN_MOTION":13.15546916,"ECCENTRICITY":0.000144,"INCLINATION":87.8955,"RA_OF_ASC_NODE":280.7589,"ARG_OF_PERICENTER":92.4342,"MEAN_ANOMALY":267.6953,"EPHEMERIS_TYPE":0,"CLASSIFICATION_TYPE":"U","NORAD_CAT_ID":48772,"ELEMENT_SET_NO":999,"REV_AT_EPOCH":23021,"BSTAR":0.00039486,"MEAN_MOTION_DOT":1.61e-6,"MEAN_MOTION_DDOT":0}]
